[{"OBJECT_NAME":"STARLINK-34971","OBJECT_ID":"2025-179X","EPOCH":"2026-03-09T17:10:08.234112","MEAN_MOTION":15.0565359,"ECCENTRICITY":0.00010742,"INCLINATION":97.6028,"RA_OF_ASC_NODE":113.0124,"ARG_OF_PERICENTER":111.6129,"MEAN_ANOMALY":248.5213,"EPHEMERIS_TYPE":0,"CLASSIFICATION_TYPE":"U","NORAD_CAT_ID":65256,"ELEMENT_SET_NO":999,"REV_AT_EPOCH":3155,"BSTAR":0.00024395888,"MEAN_MOTION_DOT":3.461e-5,"MEAN_MOTION_DDOT":0},{"OBJECT_NAME":"PEGASUS DEB","OBJECT_ID":"1994-029AGC","EPOCH":"2026-03-05T08:27:18.984384","MEAN_MOTION":14.52218034,"ECCENTRICITY":0.0236757,"INCLINATION":81.9426,"RA_OF_ASC_NODE":296.4283,"ARG_OF_PERICENTER":114.8689,"MEAN_ANOMALY":247.7324,"EPHEMERIS_TYPE":0,"CLASSIFICATION_TYPE":"U","NORAD_CAT_ID":39929,"ELEMENT_SET_NO":999,"REV_AT_EPOCH":61587,"BSTAR":0.0010545,"MEAN_MOTION_DOT":6.215e-5,"MEAN_MOTION_DDOT":0}]
